FLOCK 4BE-17            
1 60492U 24149AA  26064.20119347  .00021143  00000+0  59576-3 0  9991
2 60492  97.3829 146.9814 0002056 257.7026 102.3988 15.36456616 86273
FLOCK 4BE-22            
1 60494U 24149AC  26064.20444594  .00023741  00000+0  64608-3 0  9996
2 60494  97.3781 147.0316 0002717 282.1862  77.9078 15.37516122 86306
FLOCK 4BE-34            
1 60495U 24149AD  26064.22728055  .00019434  00000+0  52484-3 0  9999
2 60495  97.3826 147.7993 0002294 285.0327  75.0664 15.37795729 86338
FLOCK 4BE-32            
1 60497U 24149AF  26064.18169631  .00024077  00000+0  63995-3 0  9993
2 60497  97.3772 147.2597 0002652 283.5659  76.5291 15.38243907 86322
FLOCK 4BE-30            
1 60499U 24149AH  26064.19233394  .00018897  00000+0  50618-3 0  9995
2 60499  97.3851 147.8291 0002014 284.1286  75.9735 15.38054269 85702
FLOCK 4BE-11            
1 60501U 24149AK  26064.16752315  .00025655  00000+0  66365-3 0  9991
2 60501  97.3752 147.3717 0003024 284.2425  75.8484 15.39066000 86339
FLOCK 4BE-24            
1 60505U 24149AP  26064.21375377  .00024702  00000+0  64191-3 0  9997
2 60505  97.3767 147.6647 0002928 295.4686  64.6256 15.38933943 86352
TANAGER-1               
1 60507U 24149AR  26063.24770101  .00006222  00000+0  14010-3 0  9997
2 60507  97.3773 156.5482 0006733 216.0341 144.0453 15.43636846 86846
FLOCK 4BE-29            
1 60509U 24149AT  26064.17915699  .00027397  00000+0  68266-3 0  9993
2 60509  97.3853 148.7630 0001941 314.0175  46.0911 15.40201077 86385
FLOCK 4BE-2             
1 60511U 24149AV  26064.21951843  .00049687  00000+0  11334-2 0  9991
2 60511  97.3857 149.3645 0002671 291.0280  69.0682 15.42740010 86429
FLOCK 4BE-13            
1 60512U 24149AW  26064.21915304  .00022309  00000+0  58606-3 0  9990
2 60512  97.3769 147.7732 0003428 286.0348  74.0519 15.38618220 86361
FLOCK 4BE-27            
1 60513U 24149AX  26064.18283246  .00013296  00000+0  42626-3 0  9990
2 60513  97.3876 146.1156 0002941 329.1152  30.9916 15.32469971 86201
FLOCK 4BE-9             
1 60514U 24149AY  26064.20103325  .00020323  00000+0  55576-3 0  9990
2 60514  97.3836 147.7072 0001631 323.6072  36.5062 15.37398865 86322
FLOCK 4BE-6             
1 60516U 24149BA  26064.22189609  .00019187  00000+0  54120-3 0  9993
2 60516  97.3841 147.2598 0002310 313.4115  46.6936 15.36444505 86298
FLOCK 4BE-14            
1 60517U 24149BB  26064.22357186  .00021067  00000+0  57424-3 0  9991
2 60517  97.3755 147.3323 0003259 310.3813  49.7147 15.37489143 86335
FLOCK 4BE-1             
1 60518U 24149BC  26064.20886043  .00023032  00000+0  60231-3 0  9993
2 60518  97.3826 148.2487 0003063 305.1814  54.9144 15.38752835 86362
