[{"OBJECT_NAME":"FLOCK 4BE-17","OBJECT_ID":"2024-149AA","EPOCH":"2026-03-05T04:49:43.115808","MEAN_MOTION":15.36456616,"ECCENTRICITY":0.00020563,"INCLINATION":97.3829,"RA_OF_ASC_NODE":146.9814,"ARG_OF_PERICENTER":257.7026,"MEAN_ANOMALY":102.3988,"EPHEMERIS_TYPE":0,"CLASSIFICATION_TYPE":"U","NORAD_CAT_ID":60492,"ELEMENT_SET_NO":999,"REV_AT_EPOCH":8627,"BSTAR":0.0005957579,"MEAN_MOTION_DOT":0.00021143,"MEAN_MOTION_DDOT":0},{"OBJECT_NAME":"FLOCK 4BE-22","OBJECT_ID":"2024-149AC","EPOCH":"2026-03-05T04:54:24.129216","MEAN_MOTION":15.37516122,"ECCENTRICITY":0.00027178,"INCLINATION":97.3781,"RA_OF_ASC_NODE":147.0316,"ARG_OF_PERICENTER":282.1862,"MEAN_ANOMALY":77.9078,"EPHEMERIS_TYPE":0,"CLASSIFICATION_TYPE":"U","NORAD_CAT_ID":60494,"ELEMENT_SET_NO":999,"REV_AT_EPOCH":8630,"BSTAR":0.0006460818,"MEAN_MOTION_DOT":0.00023741,"MEAN_MOTION_DDOT":0},{"OBJECT_NAME":"FLOCK 4BE-34","OBJECT_ID":"2024-149AD","EPOCH":"2026-03-05T05:27:17.039520","MEAN_MOTION":15.37795729,"ECCENTRICITY":0.00022943,"INCLINATION":97.3826,"RA_OF_ASC_NODE":147.7993,"ARG_OF_PERICENTER":285.0327,"MEAN_ANOMALY":75.0664,"EPHEMERIS_TYPE":0,"CLASSIFICATION_TYPE":"U","NORAD_CAT_ID":60495,"ELEMENT_SET_NO":999,"REV_AT_EPOCH":8633,"BSTAR":0.00052483909,"MEAN_MOTION_DOT":0.00019434,"MEAN_MOTION_DDOT":0},{"OBJECT_NAME":"FLOCK 4BE-32","OBJECT_ID":"2024-149AF","EPOCH":"2026-03-05T04:21:38.561184","MEAN_MOTION":15.38243907,"ECCENTRICITY":0.0002652,"INCLINATION":97.3772,"RA_OF_ASC_NODE":147.2597,"ARG_OF_PERICENTER":283.5659,"MEAN_ANOMALY":76.5291,"EPHEMERIS_TYPE":0,"CLASSIFICATION_TYPE":"U","NORAD_CAT_ID":60497,"ELEMENT_SET_NO":999,"REV_AT_EPOCH":8632,"BSTAR":0.00063995029,"MEAN_MOTION_DOT":0.00024077,"MEAN_MOTION_DDOT":0},{"OBJECT_NAME":"FLOCK 4BE-30","OBJECT_ID":"2024-149AH","EPOCH":"2026-03-05T04:36:57.652416","MEAN_MOTION":15.38054269,"ECCENTRICITY":0.00020141,"INCLINATION":97.3851,"RA_OF_ASC_NODE":147.8291,"ARG_OF_PERICENTER":284.1286,"MEAN_ANOMALY":75.9735,"EPHEMERIS_TYPE":0,"CLASSIFICATION_TYPE":"U","NORAD_CAT_ID":60499,"ELEMENT_SET_NO":999,"REV_AT_EPOCH":8570,"BSTAR":0.00050618374,"MEAN_MOTION_DOT":0.00018897,"MEAN_MOTION_DDOT":0},{"OBJECT_NAME":"FLOCK 4BE-11","OBJECT_ID":"2024-149AK","EPOCH":"2026-03-05T04:01:14.000160","MEAN_MOTION":15.39066,"ECCENTRICITY":0.00030248,"INCLINATION":97.3752,"RA_OF_ASC_NODE":147.3717,"ARG_OF_PERICENTER":284.2425,"MEAN_ANOMALY":75.8484,"EPHEMERIS_TYPE":0,"CLASSIFICATION_TYPE":"U","NORAD_CAT_ID":60501,"ELEMENT_SET_NO":999,"REV_AT_EPOCH":8633,"BSTAR":0.00066364924,"MEAN_MOTION_DOT":0.00025655,"MEAN_MOTION_DDOT":0},{"OBJECT_NAME":"FLOCK 4BE-24","OBJECT_ID":"2024-149AP","EPOCH":"2026-03-05T05:07:48.325728","MEAN_MOTION":15.38933943,"ECCENTRICITY":0.00029284,"INCLINATION":97.3767,"RA_OF_ASC_NODE":147.6647,"ARG_OF_PERICENTER":295.4686,"MEAN_ANOMALY":64.6256,"EPHEMERIS_TYPE":0,"CLASSIFICATION_TYPE":"U","NORAD_CAT_ID":60505,"ELEMENT_SET_NO":999,"REV_AT_EPOCH":8635,"BSTAR":0.00064190788,"MEAN_MOTION_DOT":0.00024702,"MEAN_MOTION_DDOT":0},{"OBJECT_NAME":"TANAGER-1","OBJECT_ID":"2024-149AR","EPOCH":"2026-03-04T05:56:41.367264","MEAN_MOTION":15.43636846,"ECCENTRICITY":0.00067338,"INCLINATION":97.3773,"RA_OF_ASC_NODE":156.5482,"ARG_OF_PERICENTER":216.0341,"MEAN_ANOMALY":144.0453,"EPHEMERIS_TYPE":0,"CLASSIFICATION_TYPE":"U","NORAD_CAT_ID":60507,"ELEMENT_SET_NO":999,"REV_AT_EPOCH":8684,"BSTAR":0.00014009977,"MEAN_MOTION_DOT":6.222e-5,"MEAN_MOTION_DDOT":0},{"OBJECT_NAME":"FLOCK 4BE-29","OBJECT_ID":"2024-149AT","EPOCH":"2026-03-05T04:17:59.163936","MEAN_MOTION":15.40201077,"ECCENTRICITY":0.00019414,"INCLINATION":97.3853,"RA_OF_ASC_NODE":148.763,"ARG_OF_PERICENTER":314.0175,"MEAN_ANOMALY":46.0911,"EPHEMERIS_TYPE":0,"CLASSIFICATION_TYPE":"U","NORAD_CAT_ID":60509,"ELEMENT_SET_NO":999,"REV_AT_EPOCH":8638,"BSTAR":0.00068265666,"MEAN_MOTION_DOT":0.00027397,"MEAN_MOTION_DDOT":0},{"OBJECT_NAME":"FLOCK 4BE-2","OBJECT_ID":"2024-149AV","EPOCH":"2026-03-05T05:16:06.392352","MEAN_MOTION":15.4274001,"ECCENTRICITY":0.00026713,"INCLINATION":97.3857,"RA_OF_ASC_NODE":149.3645,"ARG_OF_PERICENTER":291.028,"MEAN_ANOMALY":69.0682,"EPHEMERIS_TYPE":0,"CLASSIFICATION_TYPE":"U","NORAD_CAT_ID":60511,"ELEMENT_SET_NO":999,"REV_AT_EPOCH":8642,"BSTAR":0.0011334113,"MEAN_MOTION_DOT":0.00049687,"MEAN_MOTION_DDOT":0},{"OBJECT_NAME":"FLOCK 4BE-13","OBJECT_ID":"2024-149AW","EPOCH":"2026-03-05T05:15:34.822656","MEAN_MOTION":15.3861822,"ECCENTRICITY":0.00034286,"INCLINATION":97.3769,"RA_OF_ASC_NODE":147.7732,"ARG_OF_PERICENTER":286.0348,"MEAN_ANOMALY":74.0519,"EPHEMERIS_TYPE":0,"CLASSIFICATION_TYPE":"U","NORAD_CAT_ID":60512,"ELEMENT_SET_NO":999,"REV_AT_EPOCH":8636,"BSTAR":0.00058605987,"MEAN_MOTION_DOT":0.00022309,"MEAN_MOTION_DDOT":0},{"OBJECT_NAME":"FLOCK 4BE-27","OBJECT_ID":"2024-149AX","EPOCH":"2026-03-05T04:23:16.724544","MEAN_MOTION":15.32469971,"ECCENTRICITY":0.00029412,"INCLINATION":97.3876,"RA_OF_ASC_NODE":146.1156,"ARG_OF_PERICENTER":329.1152,"MEAN_ANOMALY":30.9916,"EPHEMERIS_TYPE":0,"CLASSIFICATION_TYPE":"U","NORAD_CAT_ID":60513,"ELEMENT_SET_NO":999,"REV_AT_EPOCH":8620,"BSTAR":0.00042626338,"MEAN_MOTION_DOT":0.00013296,"MEAN_MOTION_DDOT":0},{"OBJECT_NAME":"FLOCK 4BE-9","OBJECT_ID":"2024-149AY","EPOCH":"2026-03-05T04:49:29.272800","MEAN_MOTION":15.37398865,"ECCENTRICITY":0.00016315,"INCLINATION":97.3836,"RA_OF_ASC_NODE":147.7072,"ARG_OF_PERICENTER":323.6072,"MEAN_ANOMALY":36.5062,"EPHEMERIS_TYPE":0,"CLASSIFICATION_TYPE":"U","NORAD_CAT_ID":60514,"ELEMENT_SET_NO":999,"REV_AT_EPOCH":8632,"BSTAR":0.000555759,"MEAN_MOTION_DOT":0.00020323,"MEAN_MOTION_DDOT":0},{"OBJECT_NAME":"FLOCK 4BE-6","OBJECT_ID":"2024-149BA","EPOCH":"2026-03-05T05:19:31.822176","MEAN_MOTION":15.36444505,"ECCENTRICITY":0.00023105,"INCLINATION":97.3841,"RA_OF_ASC_NODE":147.2598,"ARG_OF_PERICENTER":313.4115,"MEAN_ANOMALY":46.6936,"EPHEMERIS_TYPE":0,"CLASSIFICATION_TYPE":"U","NORAD_CAT_ID":60516,"ELEMENT_SET_NO":999,"REV_AT_EPOCH":8629,"BSTAR":0.00054120065,"MEAN_MOTION_DOT":0.00019187,"MEAN_MOTION_DDOT":0},{"OBJECT_NAME":"FLOCK 4BE-14","OBJECT_ID":"2024-149BB","EPOCH":"2026-03-05T05:21:56.608704","MEAN_MOTION":15.37489143,"ECCENTRICITY":0.00032595,"INCLINATION":97.3755,"RA_OF_ASC_NODE":147.3323,"ARG_OF_PERICENTER":310.3813,"MEAN_ANOMALY":49.7147,"EPHEMERIS_TYPE":0,"CLASSIFICATION_TYPE":"U","NORAD_CAT_ID":60517,"ELEMENT_SET_NO":999,"REV_AT_EPOCH":8633,"BSTAR":0.00057424217,"MEAN_MOTION_DOT":0.00021067,"MEAN_MOTION_DDOT":0},{"OBJECT_NAME":"FLOCK 4BE-1","OBJECT_ID":"2024-149BC","EPOCH":"2026-03-05T05:00:45.541152","MEAN_MOTION":15.38752835,"ECCENTRICITY":0.00030633,"INCLINATION":97.3826,"RA_OF_ASC_NODE":148.2487,"ARG_OF_PERICENTER":305.1814,"MEAN_ANOMALY":54.9144,"EPHEMERIS_TYPE":0,"CLASSIFICATION_TYPE":"U","NORAD_CAT_ID":60518,"ELEMENT_SET_NO":999,"REV_AT_EPOCH":8636,"BSTAR":0.00060230817,"MEAN_MOTION_DOT":0.00023032,"MEAN_MOTION_DDOT":0}]
